[
    {
        "address": "​2A Grosvenor St, London, ON N6A 1Y4, Canada",
        "place_name": "​Gibbons Park",
        "url": "https:\/\/maps.google.com\/?cid=10957435763595203617",
        "checked_in_at_utc": "2025-07-02 18:24:00"
    },
    {
        "address": "390 Springbank Dr #18, London, ON N6J 1G9, Canada",
        "place_name": "Rich Bins Liquidation",
        "url": "https:\/\/maps.google.com\/?cid=498205474147953873",
        "checked_in_at_utc": "2025-06-29 18:52:00"
    },
    {
        "address": "660 Oxford St W, London, ON N6H 1T9, Canada",
        "place_name": "168 Sushi Asian Buffet Bar",
        "url": "https:\/\/maps.google.com\/?cid=10906106214061173541",
        "checked_in_at_utc": "2025-06-24 23:33:00"
    },
    {
        "address": "735 Wonderland Rd N #11, London, ON N6H 4L1, Canada",
        "place_name": "The Ravenous Taotie",
        "url": "https:\/\/maps.google.com\/?cid=9299408499673587954",
        "checked_in_at_utc": "2025-06-15 23:28:00"
    },
    {
        "address": "95 Elm St, St Thomas, ON N5R 1H7, Canada",
        "place_name": "Pinafore Park",
        "url": "https:\/\/maps.google.com\/?cid=6886727379578975942",
        "checked_in_at_utc": "2025-06-04 17:06:00"
    },
    {
        "address": "2824 Barton St E, Hamilton, ON L8E 2J9, Canada",
        "place_name": "Krazy Binz - Hamilton",
        "url": "https:\/\/maps.google.com\/?cid=18227272724029165371",
        "checked_in_at_utc": "2025-05-23 16:01:00"
    },
    {
        "address": "401225 ON-401, Woodstock, ON N4S 7W8, Canada",
        "place_name": "ONroute Woodstock",
        "url": "https:\/\/maps.google.com\/?cid=17275336518148252601",
        "checked_in_at_utc": "2025-05-11 02:09:00"
    },
    {
        "address": "611 Wonderland Rd N #1, London, ON N6H 1T6, Canada",
        "place_name": "Master liquidation - North",
        "url": "https:\/\/maps.google.com\/?cid=16223659610859838062",
        "checked_in_at_utc": "2025-04-24 22:05:00"
    },
    {
        "address": "301 Oxford St W #22, London, ON N6H 1S6, Canada",
        "place_name": "Stacked Burger Cherryhill",
        "url": "https:\/\/maps.google.com\/?cid=803026253808254039",
        "checked_in_at_utc": "2025-04-23 17:07:00"
    },
    {
        "address": "3325 Wonderland Rd S Unit 2, London, ON N6L 0E3, Canada",
        "place_name": "Value Village",
        "url": "https:\/\/maps.google.com\/?cid=7771885811043914892",
        "checked_in_at_utc": "2025-04-22 18:32:00"
    },
    {
        "address": "1680 Richmond St Y010, London, ON N6G 3Y9, Canada",
        "place_name": "The Rec Room Masonville",
        "url": "https:\/\/maps.google.com\/?cid=7757158159227234071",
        "checked_in_at_utc": "2025-04-17 19:44:00"
    },
    {
        "address": "3234 Wonderland Rd S, London, ON N6L 1A8, Canada",
        "place_name": "Tesla",
        "url": "https:\/\/maps.google.com\/?cid=6311323267799023577",
        "checked_in_at_utc": "2025-04-13 15:56:00"
    },
    {
        "address": "541 Oxford St W #104, London, ON N6H 0H9, Canada",
        "place_name": "Hero Certified Burgers",
        "url": "https:\/\/maps.google.com\/?cid=9913950294390690217",
        "checked_in_at_utc": "2025-04-08 16:57:00"
    },
    {
        "address": "1371 Beaverbrook Ave Unit 5, London, ON N6H 0J1, Canada",
        "place_name": "Wendy's",
        "url": "https:\/\/maps.google.com\/?cid=16348174842578273803",
        "checked_in_at_utc": "2025-04-03 17:52:00"
    },
    {
        "address": "720 Proudfoot Ln, London, ON N6H 5G5, Canada",
        "place_name": "Dairy Queen Grill & Chill",
        "url": "https:\/\/maps.google.com\/?cid=6543452200040159278",
        "checked_in_at_utc": "2025-03-27 21:31:00"
    },
    {
        "address": "735 Wonderland Rd N #20, London, ON N6H 4L1, Canada",
        "place_name": "Sugar Marmalade",
        "url": "https:\/\/maps.google.com\/?cid=2580662526539002703",
        "checked_in_at_utc": "2025-03-25 21:23:00"
    },
    {
        "address": "666 Wonderland Rd N, London, ON N6H 4K9, Canada",
        "place_name": "Chuck's Roadhouse Bar & Grill",
        "url": "https:\/\/maps.google.com\/?cid=2587036566926100360",
        "checked_in_at_utc": "2025-03-24 17:26:00"
    },
    {
        "address": "735 Wonderland Rd N #20, London, ON N6H 4L1, Canada",
        "place_name": "Sugar Marmalade",
        "url": "https:\/\/maps.google.com\/?cid=2580662526539002703",
        "checked_in_at_utc": "2025-03-23 23:38:00"
    },
    {
        "address": "735 Wonderland Rd N, London, ON N6H 0H8, Canada",
        "place_name": "Gol's Lanzhou Noodle London",
        "url": "https:\/\/maps.google.com\/?cid=11658589996700927012",
        "checked_in_at_utc": "2025-03-23 22:06:00"
    },
    {
        "address": "735 Wonderland Rd N, London, ON N6H 0H8, Canada",
        "place_name": "Gol's Lanzhou Noodle London",
        "url": "https:\/\/maps.google.com\/?cid=11658589996700927012",
        "checked_in_at_utc": "2025-03-19 16:53:00"
    },
    {
        "address": "654 Wonderland Rd N, London, ON N6H 3E5, Canada",
        "place_name": "CoCo Fresh Tea & Juice London",
        "url": "https:\/\/maps.google.com\/?cid=1873089235041060846",
        "checked_in_at_utc": "2025-03-18 19:24:00"
    },
    {
        "address": "735 Wonderland Rd N, London, ON N6H 4L1, Canada",
        "place_name": "Swiss Chalet",
        "url": "https:\/\/maps.google.com\/?cid=5533776287777694372",
        "checked_in_at_utc": "2025-03-17 17:27:00"
    },
    {
        "address": "1800 Hyde Park Rd, London, ON N6H 0K1, Canada",
        "place_name": "Lord Gainsborough Family Restaurant & Pizza London",
        "url": "https:\/\/maps.google.com\/?cid=7197748111736244326",
        "checked_in_at_utc": "2025-03-06 18:03:00"
    },
    {
        "address": "301 Oxford St W, London, ON N6H 1S6, Canada",
        "place_name": "Gino's Pizza",
        "url": "https:\/\/maps.google.com\/?cid=9043089625064188088",
        "checked_in_at_utc": "2025-02-25 20:19:00"
    },
    {
        "address": "Citi Plaza Shopping Mall, 355 Wellington St, London, ON N6A 3N7, Canada",
        "place_name": "Imagine Cinemas London",
        "url": "https:\/\/maps.google.com\/?cid=257550061714754593",
        "checked_in_at_utc": "2025-02-25 17:34:00"
    },
    {
        "address": "1680 Richmond St, London, ON N6G 3Y9, Canada",
        "place_name": "Cinnabon",
        "url": "https:\/\/maps.google.com\/?cid=12873924603690685616",
        "checked_in_at_utc": "2025-02-24 21:06:00"
    },
    {
        "address": "1970 Hyde Park Rd Unit-4, London, ON N6H 5L9, Canada",
        "place_name": "Red Swan Pizza",
        "url": "https:\/\/maps.google.com\/?cid=18061857814288487456",
        "checked_in_at_utc": "2025-02-10 17:28:00"
    },
    {
        "address": "Citi Plaza Shopping Mall, 355 Wellington St, London, ON N6A 3N7, Canada",
        "place_name": "Imagine Cinemas London",
        "url": "https:\/\/maps.google.com\/?cid=257550061714754593",
        "checked_in_at_utc": "2025-02-04 17:43:00"
    },
    {
        "address": "355 Hespeler Rd, Cambridge, ON N1R 6B3, Canada",
        "place_name": "Cambridge Centre",
        "url": "https:\/\/maps.google.com\/?cid=15967902617520390555",
        "checked_in_at_utc": "2025-01-22 15:21:00"
    },
    {
        "address": "1371 Beaverbrook Ave, London, ON N6H 0J1, Canada",
        "place_name": "QDOBA Mexican Eats",
        "url": "https:\/\/maps.google.com\/?cid=5545324702722234708",
        "checked_in_at_utc": "2025-01-16 17:28:00"
    },
    {
        "address": "Citi Plaza Shopping Mall, 355 Wellington St, London, ON N6A 3N7, Canada",
        "place_name": "Imagine Cinemas London",
        "url": "https:\/\/maps.google.com\/?cid=257550061714754593",
        "checked_in_at_utc": "2025-01-07 17:30:00"
    },
    {
        "address": "130 King St, London, ON N6A 1C5, Canada",
        "place_name": "Covent Garden Market",
        "url": "https:\/\/maps.google.com\/?cid=13260531597251818981",
        "checked_in_at_utc": "2024-12-31 19:32:00"
    },
    {
        "address": "746 Richmond St, London, ON N6A 3H3, Canada",
        "place_name": "Unicorn Tea House",
        "url": "https:\/\/maps.google.com\/?cid=11476691218597614484",
        "checked_in_at_utc": "2024-12-31 17:37:00"
    },
    {
        "address": "551 Richmond St #12, London, ON N6A 1L9, Canada",
        "place_name": "Winks Eatery",
        "url": "https:\/\/maps.google.com\/?cid=17594727695528518195",
        "checked_in_at_utc": "2024-12-31 16:03:00"
    },
    {
        "address": "1030 Adelaide St N #8c, London, ON N5Y 2M9, Canada",
        "place_name": "Pho Lee Restaurant",
        "url": "https:\/\/maps.google.com\/?cid=6481165228750139582",
        "checked_in_at_utc": "2024-12-19 18:46:00"
    },
    {
        "address": "3210 Wonderland Rd S, London, ON N6L 1A6, Canada",
        "place_name": "A&W Canada",
        "url": "https:\/\/maps.google.com\/?cid=15768320013920009900",
        "checked_in_at_utc": "2024-12-12 17:51:00"
    },
    {
        "address": "1067 Wellington Rd, London, ON N6E 2H5, Canada",
        "place_name": "Swiss Chalet",
        "url": "https:\/\/maps.google.com\/?cid=18261118663298811363",
        "checked_in_at_utc": "2024-12-11 18:43:00"
    },
    {
        "address": "1105 Wellington Rd, London, ON N6E 1V4, Canada",
        "place_name": "White Oaks Mall",
        "url": "https:\/\/maps.google.com\/?cid=6717499723421787763",
        "checked_in_at_utc": "2024-12-10 18:11:00"
    },
    {
        "address": "705 Wonderland Rd N, London, ON N6H 0H8, Canada",
        "place_name": "Sunset Grill",
        "url": "https:\/\/maps.google.com\/?cid=14144193969765543771",
        "checked_in_at_utc": "2024-12-07 14:42:00"
    },
    {
        "address": "735 Wonderland Rd N #14, London, ON N6H 4L1, Canada",
        "place_name": "Sugar Marmalade",
        "url": "https:\/\/maps.google.com\/?cid=2580662526539002703",
        "checked_in_at_utc": "2024-11-28 20:54:00"
    },
    {
        "address": "1190 Oxford St W, London, ON N6H 4N2, Canada",
        "place_name": "Remark Fresh Markets",
        "url": "https:\/\/maps.google.com\/?cid=14787491848317839000",
        "checked_in_at_utc": "2024-11-28 20:21:00"
    },
    {
        "address": "1205 Oxford St W, London, ON N6H 1V9, Canada",
        "place_name": "Real Canadian Superstore Oxford Street - Oakridge",
        "url": "https:\/\/maps.google.com\/?cid=2011954157840080044",
        "checked_in_at_utc": "2024-11-28 19:48:00"
    },
    {
        "address": "1800 Hyde Park Rd, London, ON N6H 0K1, Canada",
        "place_name": "Lord Gainsborough Family Restaurant & Pizza London",
        "url": "https:\/\/maps.google.com\/?cid=7197748111736244326",
        "checked_in_at_utc": "2024-11-28 18:43:00"
    },
    {
        "address": "530 Oxford St W, London, ON N6H 1T6, Canada",
        "place_name": "T&T Supermarket London Store",
        "url": "https:\/\/maps.google.com\/?cid=2743712532288665638",
        "checked_in_at_utc": "2024-11-12 01:11:00"
    },
    {
        "address": "705 Wonderland Rd N #3, London, ON N6H 0H8, Canada",
        "place_name": "Cross Eyed Optical",
        "url": "https:\/\/maps.google.com\/?cid=16181614324806040077",
        "checked_in_at_utc": "2024-11-06 18:47:00"
    },
    {
        "address": "1192 Highbury Ave N, London, ON N5Y 1A7, Canada",
        "place_name": "Harvey's",
        "url": "https:\/\/maps.google.com\/?cid=2692529037396778003",
        "checked_in_at_utc": "2024-11-05 18:03:00"
    },
    {
        "address": "705 Wonderland Rd N, London, ON N6H 0H8, Canada",
        "place_name": "Sunset Grill",
        "url": "https:\/\/maps.google.com\/?cid=14144193969765543771",
        "checked_in_at_utc": "2024-11-04 17:36:00"
    },
    {
        "address": "1205 Hyde Park Rd #1175, London, ON N6H 5K6, Canada",
        "place_name": "Tim Hortons",
        "url": "https:\/\/maps.google.com\/?cid=17888295054483513836",
        "checked_in_at_utc": "2024-11-01 14:36:00"
    },
    {
        "address": "243 Oxford St E, London, ON N6A 1V2, Canada",
        "place_name": "Wendy's",
        "url": "https:\/\/maps.google.com\/?cid=16537868574536330475",
        "checked_in_at_utc": "2024-10-31 19:51:00"
    },
    {
        "address": "1175 Hyde Park Rd, London, ON N6H 5K6, Canada",
        "place_name": "Giant Tiger",
        "url": "https:\/\/maps.google.com\/?cid=5734604972102017386",
        "checked_in_at_utc": "2024-10-28 20:22:00"
    },
    {
        "address": "99 Dundas St, London, ON N6A 6K1, Canada",
        "place_name": "Canada Life Place",
        "url": "https:\/\/maps.google.com\/?cid=10777904574184287649",
        "checked_in_at_utc": "2024-10-26 23:16:00"
    },
    {
        "address": "1175 Hyde Park Rd, London, ON N6H 5K6, Canada",
        "place_name": "Giant Tiger",
        "url": "https:\/\/maps.google.com\/?cid=5734604972102017386",
        "checked_in_at_utc": "2024-10-24 18:36:00"
    },
    {
        "address": "1151 Richmond St, London, ON N6A 3K7, Canada",
        "place_name": "Medway Lot",
        "url": "https:\/\/maps.google.com\/?cid=1908113395513089770",
        "checked_in_at_utc": "2024-10-22 16:21:00"
    },
    {
        "address": "541 Oxford St W, London, ON N6H 4L1, Canada",
        "place_name": "Ozen Korea",
        "url": "https:\/\/maps.google.com\/?cid=13749115182750206344",
        "checked_in_at_utc": "2024-10-20 22:14:00"
    },
    {
        "address": "1205 Hyde Park Rd #1175, London, ON N6H 5K6, Canada",
        "place_name": "Tim Hortons",
        "url": "https:\/\/maps.google.com\/?cid=17888295054483513836",
        "checked_in_at_utc": "2024-10-19 13:17:00"
    },
    {
        "address": "75 Centennial Pkwy N, Hamilton, ON L8E 2P2, Canada",
        "place_name": "Eastgate Square",
        "url": "https:\/\/maps.google.com\/?cid=13986066508530869339",
        "checked_in_at_utc": "2024-10-17 17:29:00"
    },
    {
        "address": "640 Queenston Rd, Hamilton, ON L8K 1K2, Canada",
        "place_name": "Mark's",
        "url": "https:\/\/maps.google.com\/?cid=11021251493611572766",
        "checked_in_at_utc": "2024-10-17 16:10:00"
    },
    {
        "address": "706 Queenston Rd, Hamilton, ON L8G 1A3, Canada",
        "place_name": "Tim Hortons",
        "url": "https:\/\/maps.google.com\/?cid=14671030782531376273",
        "checked_in_at_utc": "2024-10-17 14:16:00"
    },
    {
        "address": "640 Queenston Rd B, Hamilton, ON L8K 1K2, Canada",
        "place_name": "Dynacare Laboratory and Health Services Centre",
        "url": "https:\/\/maps.google.com\/?cid=4587160780196138955",
        "checked_in_at_utc": "2024-10-17 12:59:00"
    },
    {
        "address": "90 Hwy 8 Unit G3, Stoney Creek, ON L8G 4H3, Canada",
        "place_name": "Nani's Gelato Stoney Creek",
        "url": "https:\/\/maps.google.com\/?cid=14545900884287671455",
        "checked_in_at_utc": "2024-10-16 21:14:00"
    },
    {
        "address": "90 Hwy 8, Stoney Creek, ON L8G 4H3, Canada",
        "place_name": "Starbucks",
        "url": "https:\/\/maps.google.com\/?cid=2118995440964241735",
        "checked_in_at_utc": "2024-10-16 18:40:00"
    },
    {
        "address": "1050 Upper Gage Ave, Hamilton, ON L8V 5B7, Canada",
        "place_name": "Mike's Submarines",
        "url": "https:\/\/maps.google.com\/?cid=12784143722101426022",
        "checked_in_at_utc": "2024-10-16 17:48:00"
    },
    {
        "address": "705 Wonderland Rd N, London, ON N6H 0H8, Canada",
        "place_name": "Sunset Grill",
        "url": "https:\/\/maps.google.com\/?cid=14144193969765543771",
        "checked_in_at_utc": "2024-10-15 15:54:00"
    },
    {
        "address": "701 Wonderland Rd N, London, ON N6H 0H8, Canada",
        "place_name": "Pho D'lux",
        "url": "https:\/\/maps.google.com\/?cid=16314269533804013557",
        "checked_in_at_utc": "2024-10-10 15:53:00"
    },
    {
        "address": "1371 Beaverbrook Ave, London, ON N6H 0J1, Canada",
        "place_name": "QDOBA Mexican Eats",
        "url": "https:\/\/maps.google.com\/?cid=5545324702722234708",
        "checked_in_at_utc": "2024-10-07 16:18:00"
    },
    {
        "address": "2652 Scotland Dr, London, ON N6N 1L7, Canada",
        "place_name": "Kirk-Cousins Management Area",
        "url": "https:\/\/maps.google.com\/?cid=17177656579577849275",
        "checked_in_at_utc": "2024-10-05 15:38:00"
    },
    {
        "address": "3100 Wonderland Rd S, London, ON N6L 1A6, Canada",
        "place_name": "Canadian Tire",
        "url": "https:\/\/maps.google.com\/?cid=8299215933954620908",
        "checked_in_at_utc": "2024-10-05 13:12:00"
    },
    {
        "address": "1220 Adelaide St N, London, ON N5Y 4T6, Canada",
        "place_name": "Wells Park",
        "url": "https:\/\/maps.google.com\/?cid=14211198961785062838",
        "checked_in_at_utc": "2024-10-02 18:26:00"
    },
    {
        "address": "735 Wonderland Rd N, London, ON N6H 4L1, Canada",
        "place_name": "Swiss Chalet",
        "url": "https:\/\/maps.google.com\/?cid=5533776287777694372",
        "checked_in_at_utc": "2024-10-02 16:38:00"
    },
    {
        "address": "​2A Grosvenor St, London, ON N6A 1Y4, Canada",
        "place_name": "​Gibbons Park",
        "url": "https:\/\/maps.google.com\/?cid=10957435763595203617",
        "checked_in_at_utc": "2024-09-30 18:18:00"
    },
    {
        "address": "1800 Hyde Park Rd, London, ON N6H 0K1, Canada",
        "place_name": "Lord Gainsborough Family Restaurant & Pizza London",
        "url": "https:\/\/maps.google.com\/?cid=7197748111736244326",
        "checked_in_at_utc": "2024-09-28 04:12:00"
    },
    {
        "address": "1100 Wellington Rd, London, ON N6E 1M2, Canada",
        "place_name": "Days Inn by Wyndham London",
        "url": "https:\/\/maps.google.com\/?cid=8047525545443498904",
        "checked_in_at_utc": "2024-09-26 01:36:00"
    },
    {
        "address": "715 Wellington Rd, London, ON N6C 4R4, Canada",
        "place_name": "India House Fine Indian Cuisine",
        "url": "https:\/\/maps.google.com\/?cid=3445558055218279371",
        "checked_in_at_utc": "2024-09-25 23:58:00"
    },
    {
        "address": "230 Victoria St #112, London, ON N6A 2C2, Canada",
        "place_name": "Dynacare Laboratory and Health Services Centre",
        "url": "https:\/\/maps.google.com\/?cid=8572513773290702261",
        "checked_in_at_utc": "2024-09-17 16:50:00"
    },
    {
        "address": "2485 Appleby Line g02, Burlington, ON L7R 3X4, Canada",
        "place_name": "Nani's Gelato",
        "url": "https:\/\/maps.google.com\/?cid=12838413871263297458",
        "checked_in_at_utc": "2024-09-07 22:34:00"
    },
    {
        "address": "900 Maple Ave, Burlington, ON L7S 2J8, Canada",
        "place_name": "Apple Mapleview Centre",
        "url": "https:\/\/maps.google.com\/?cid=4665577634822164943",
        "checked_in_at_utc": "2024-09-07 16:56:00"
    },
    {
        "address": "1267 Barton St E Unit F4, Hamilton, ON L8H 2V4, Canada",
        "place_name": "Mark's",
        "url": "https:\/\/maps.google.com\/?cid=13216506265998545544",
        "checked_in_at_utc": "2024-09-07 16:28:00"
    },
    {
        "address": "1050 Upper Gage Ave #8, Hamilton, ON L8V 5B7, Canada",
        "place_name": "I.D.A. - Gage Pharmacy",
        "url": "https:\/\/maps.google.com\/?cid=2502728557295920355",
        "checked_in_at_utc": "2024-09-07 14:47:00"
    },
    {
        "address": "387 Forest Ave, Buffalo, NY 14213, USA",
        "place_name": "Daniela",
        "url": "https:\/\/maps.google.com\/?cid=3640555053211955686",
        "checked_in_at_utc": "2024-09-03 22:22:00"
    },
    {
        "address": "1 Peace Brg, Buffalo, NY 14213, USA",
        "place_name": "Buffalo and Fort Erie Public Bridge Authority",
        "url": "https:\/\/maps.google.com\/?cid=1919915080004974477",
        "checked_in_at_utc": "2024-09-03 21:30:00"
    },
    {
        "address": "10 Central Ave, Fort Erie, ON L2A 3S6, Canada",
        "place_name": "NEXUS Enrollment Centre",
        "url": "https:\/\/maps.google.com\/?cid=12385534399798690782",
        "checked_in_at_utc": "2024-09-03 20:58:00"
    },
    {
        "address": "43 Jarvis St unit 1, Fort Erie, ON L2A 2S3, Canada",
        "place_name": "Waffle Bandits",
        "url": "https:\/\/maps.google.com\/?cid=16121774232719773961",
        "checked_in_at_utc": "2024-09-03 19:14:00"
    },
    {
        "address": "100 Queen St, Fort Erie, ON L2A 3S6, Canada",
        "place_name": "Buffalo and Fort Erie Public Bridge Authority",
        "url": "https:\/\/maps.google.com\/?cid=16301163407532174974",
        "checked_in_at_utc": "2024-09-03 18:18:00"
    },
    {
        "address": "75 Centennial Pkwy N, Hamilton, ON L8E 2P2, Canada",
        "place_name": "Eastgate Square",
        "url": "https:\/\/maps.google.com\/?cid=13986066508530869339",
        "checked_in_at_utc": "2024-08-27 23:23:00"
    },
    {
        "address": "Queenston Place 640 Queenston Rd, Hamilton, ON L8K 1K2, Canada",
        "place_name": "BarBurrito",
        "url": "https:\/\/maps.app.goo.gl\/NKKpd5wEiRtuo1o59",
        "checked_in_at_utc": "2024-08-25 03:44:00"
    },
    {
        "address": "Confederation Beach Park 280 Van Wagners Beach Rd, Hamilton, ON L8E 3L8, Canada",
        "place_name": "Hutch’s on the Beach",
        "url": "https:\/\/maps.app.goo.gl\/fhm1BK4hFdcDRTdu8",
        "checked_in_at_utc": "2024-08-11 21:37:00"
    },
    {
        "address": "50 Charlton Ave E Main Entrance, Hamilton, ON L8N 4A6, Canada",
        "place_name": "Tim Hortons",
        "url": "https:\/\/maps.google.com\/?cid=16670075466325234215",
        "checked_in_at_utc": "2024-08-09 13:28:00"
    },
    {
        "address": "1508 Upper James St, Hamilton, ON L9B 1K3, Canada",
        "place_name": "Mandarin Restaurant",
        "url": "https:\/\/maps.app.goo.gl\/4TBjq1DYeCzPXyzr5",
        "checked_in_at_utc": "2024-08-03 16:49:00"
    },
    {
        "address": "Confederation Beach Park 280 Van Wagners Beach Rd, Hamilton, ON L8E 3L8, Canada",
        "place_name": "Hutch’s on the Beach",
        "url": "https:\/\/maps.app.goo.gl\/fhm1BK4hFdcDRTdu8",
        "checked_in_at_utc": "2024-08-03 00:46:00"
    },
    {
        "address": "Confederation Beach Park 280 Van Wagners Beach Rd, Hamilton, ON L8E 3L8, Canada",
        "place_name": "Hutch’s on the Beach",
        "url": "https:\/\/maps.app.goo.gl\/fhm1BK4hFdcDRTdu8",
        "checked_in_at_utc": "2024-08-01 00:42:00"
    },
    {
        "address": "640 Queenston Rd unit c, Hamilton, ON L8K 1J7, Canada",
        "place_name": "barBURRITO",
        "url": "https:\/\/maps.google.com\/?cid=11915217402593352500",
        "checked_in_at_utc": "2024-07-22 00:32:00"
    },
    {
        "address": "999 Upper Wentworth St, Hamilton, ON L9A 4X5, Canada",
        "place_name": "CF Lime Ridge",
        "url": "https:\/\/maps.app.goo.gl\/kkGAvi5VR3Cjzd9C7",
        "checked_in_at_utc": "2024-07-20 01:10:00"
    },
    {
        "address": "1807 Stone Church Rd E, Hamilton, ON L8J 0K5, Canada",
        "place_name": "Five Guys",
        "url": "https:\/\/maps.app.goo.gl\/YBJX3j4smPjXCPL37",
        "checked_in_at_utc": "2024-07-19 23:17:00"
    },
    {
        "address": "981 Highway 8, Hamilton, ON L8G 1B8, Canada",
        "place_name": "DQ Grill & Chill",
        "url": "https:\/\/maps.app.goo.gl\/3hKKnCzt5JgqZRps9",
        "checked_in_at_utc": "2024-07-10 22:33:00"
    },
    {
        "address": "1441 Upper James St, Hamilton, ON L9B 1K2, Canada",
        "place_name": "Spring Grill House",
        "url": "https:\/\/maps.app.goo.gl\/JDnPFajxCRHdhVST9",
        "checked_in_at_utc": "2024-07-01 01:10:00"
    },
    {
        "address": "625 Greenhill Ave, Hamilton, ON L8K 5W9, Canada",
        "place_name": "Donair Istanbull",
        "url": "https:\/\/maps.app.goo.gl\/pbVX6HVRVvfkxvkJA",
        "checked_in_at_utc": "2024-06-25 23:34:00"
    },
    {
        "address": "1223 Barton St E, Hamilton, ON L8H 2V8, Canada",
        "place_name": "Mandarin Restaurant",
        "url": "https:\/\/maps.app.goo.gl\/gzHJ4G9zEygbf4FW6",
        "checked_in_at_utc": "2024-06-24 22:20:00"
    },
    {
        "address": "1065 Plains Rd E, Burlington, ON L7T 4K1, Canada",
        "place_name": "IKEA Burlington - Restaurant",
        "url": "https:\/\/maps.app.goo.gl\/pqc8W65XxFqaFoEC7",
        "checked_in_at_utc": "2024-06-16 23:23:00"
    },
    {
        "address": "1550 Upper James St, Hamilton, ON L9B 2L6, Canada",
        "place_name": "Marble Slab Creamery",
        "url": "https:\/\/maps.app.goo.gl\/qnvjJzmQNAHtcQeq5",
        "checked_in_at_utc": "2024-05-05 01:11:00"
    },
    {
        "address": "735 Wonderland Rd N, London, ON N6H 4L1, Canada",
        "place_name": "Marble Slab Creamery",
        "url": "https:\/\/maps.app.goo.gl\/X3v8XSFad3gt6LCh6",
        "checked_in_at_utc": "2024-04-27 02:34:00"
    }
]